{"type": "FeatureCollection", "features": [ {"type": "Feature", "properties": {"norad_id": 37079, "name": "FENGYUN 1C DEB", "group": "fengyun-1c-debris", "lat": 19.906020106475243, "lon": 133.35804622095776, "alt_km": 691.0713555481534, "timestamp": "2025-12-26T16:33:55.859281+00:00", "meta": {"OBJECT_NAME": "FENGYUN 1C DEB", "OBJECT_ID": "1999-025EFP", "EPOCH": "2025-12-18T02:53:46.135104", "MEAN_MOTION": 14.6004098, "ECCENTRICITY": 0.00113024, "INCLINATION": 98.8569, "RA_OF_ASC_NODE": 127.4448, "ARG_OF_PERICENTER": 127.1954, "MEAN_ANOMALY": 233.0277, "EPHEMERIS_TYPE": 0, "CLASSIFICATION_TYPE": "U", "NORAD_CAT_ID": 37079, "ELEMENT_SET_NO": 999, "REV_AT_EPOCH": 64694, "BSTAR": 0.0027811281, "MEAN_MOTION_DOT": 0.00013341, "MEAN_MOTION_DDOT": 0}, "tle": {"line1": "1 37079U 99025EFP 25352.12067286  .00013341  00000+0  27811-2 0  9992", "line2": "2 37079  98.8569 127.4448 0011302 127.1954 233.0277 14.60040980646944"}}, "geometry": {"type": "Point", "coordinates": [133.35804622095776, 19.906020106475243]}}, {"type": "Feature", "properties": {"norad_id": 37081, "name": "FENGYUN 1C DEB", "group": "fengyun-1c-debris", "lat": 62.16888233306586, "lon": 135.76153281794865, "alt_km": 917.8989144586303, "timestamp": "2025-12-26T16:33:55.859290+00:00", "meta": {"OBJECT_NAME": "FENGYUN 1C DEB", "OBJECT_ID": "1999-025EFR", "EPOCH": "2025-12-26T06:04:47.903808", "MEAN_MOTION": 14.14125653, "ECCENTRICITY": 0.02679491, "INCLINATION": 98.7024, "RA_OF_ASC_NODE": 152.2003, "ARG_OF_PERICENTER": 309.36, "MEAN_ANOMALY": 48.4106, "EPHEMERIS_TYPE": 0, "CLASSIFICATION_TYPE": "U", "NORAD_CAT_ID": 37081, "ELEMENT_SET_NO": 999, "REV_AT_EPOCH": 58765, "BSTAR": 0.0048892951, "MEAN_MOTION_DOT": 0.00013117, "MEAN_MOTION_DDOT": 0}, "tle": {"line1": "1 37081U 99025EFR 25360.25333222  .00013117  00000+0  48893-2 0  9998", "line2": "2 37081  98.7024 152.2003 0267949 309.3600  48.4106 14.14125653587658"}}, "geometry": {"type": "Point", "coordinates": [135.76153281794865, 62.16888233306586]}}, {"type": "Feature", "properties": {"norad_id": 37400, "name": "FENGYUN 1C DEB", "group": "fengyun-1c-debris", "lat": -22.76377297345239, "lon": 13.092122969669608, "alt_km": 1082.2674050151036, "timestamp": "2025-12-26T16:33:55.859299+00:00", "meta": {"OBJECT_NAME": "FENGYUN 1C DEB", "OBJECT_ID": "1999-025EFS", "EPOCH": "2025-12-24T07:16:05.399328", "MEAN_MOTION": 13.63657773, "ECCENTRICITY": 0.04018246, "INCLINATION": 98.8375, "RA_OF_ASC_NODE": 194.6593, "ARG_OF_PERICENTER": 106.3688, "MEAN_ANOMALY": 258.2022, "EPHEMERIS_TYPE": 0, "CLASSIFICATION_TYPE": "U", "NORAD_CAT_ID": 37400, "ELEMENT_SET_NO": 999, "REV_AT_EPOCH": 80351, "BSTAR": 0.00039634008, "MEAN_MOTION_DOT": 5.07e-06, "MEAN_MOTION_DDOT": 0}, "tle": {"line1": "1 37400U 99025EFS 25358.30284027  .00000507  00000+0  39634-3 0  9997", "line2": "2 37400  98.8375 194.6593 0401824 106.3688 258.2022 13.63657773803510"}}, "geometry": {"type": "Point", "coordinates": [13.092122969669608, -22.76377297345239]}}, {"type": "Feature", "properties": {"norad_id": 37404, "name": "FENGYUN 1C DEB", "group": "fengyun-1c-debris", "lat": 42.906027791631026, "lon": -168.8902266125207, "alt_km": 751.4880912170593, "timestamp": "2025-12-26T16:33:55.859308+00:00", "meta": {"OBJECT_NAME": "FENGYUN 1C DEB", "OBJECT_ID": "1999-025EFW", "EPOCH": "2025-12-22T06:21:11.904768", "MEAN_MOTION": 14.31671583, "ECCENTRICITY": 0.00448603, "INCLINATION": 98.4521, "RA_OF_ASC_NODE": 358.8573, "ARG_OF_PERICENTER": 134.3653, "MEAN_ANOMALY": 245.751, "EPHEMERIS_TYPE": 0, "CLASSIFICATION_TYPE": "U", "NORAD_CAT_ID": 37404, "ELEMENT_SET_NO": 999, "REV_AT_EPOCH": 82877, "BSTAR": 0.00061046451, "MEAN_MOTION_DOT": 1.603e-05, "MEAN_MOTION_DDOT": 0}, "tle": {"line1": "1 37404U 99025EFW 25356.26472112  .00001603  00000+0  61046-3 0  9998", "line2": "2 37404  98.4521 358.8573 0044860 134.3653 245.7510 14.31671583828770"}}, "geometry": {"type": "Point", "coordinates": [-168.8902266125207, 42.906027791631026]}}, {"type": "Feature", "properties": {"norad_id": 37406, "name": "FENGYUN 1C DEB", "group": "fengyun-1c-debris", "lat": 55.89538097440012, "lon": 64.52817578607228, "alt_km": 897.749081065359, "timestamp": "2025-12-26T16:33:55.859317+00:00", "meta": {"OBJECT_NAME": "FENGYUN 1C DEB", "OBJECT_ID": "1999-025EFY", "EPOCH": "2025-12-22T21:25:18.983712", "MEAN_MOTION": 14.04322648, "ECCENTRICITY": 0.0149002, "INCLINATION": 98.4422, "RA_OF_ASC_NODE": 228.3273, "ARG_OF_PERICENTER": 237.6603, "MEAN_ANOMALY": 138.5268, "EPHEMERIS_TYPE": 0, "CLASSIFICATION_TYPE": "U", "NORAD_CAT_ID": 37406, "ELEMENT_SET_NO": 999, "REV_AT_EPOCH": 63375, "BSTAR": 0.00087973, "MEAN_MOTION_DOT": 1.504e-05, "MEAN_MOTION_DDOT": 0}, "tle": {"line1": "1 37406U 99025EFY 25356.89258083  .00001504  00000+0  87973-3 0  9995", "line2": "2 37406  98.4422 228.3273 0149002 237.6603 138.5268 14.04322648633752"}}, "geometry": {"type": "Point", "coordinates": [64.52817578607228, 55.89538097440012]}}, {"type": "Feature", "properties": {"norad_id": 37415, "name": "FENGYUN 1C DEB", "group": "fengyun-1c-debris", "lat": 16.65616388236102, "lon": 104.51238231854168, "alt_km": 1197.257428534741, "timestamp": "2025-12-26T16:33:55.859326+00:00", "meta": {"OBJECT_NAME": "FENGYUN 1C DEB", "OBJECT_ID": "1999-025EGH", "EPOCH": "2025-12-23T13:53:12.939072", "MEAN_MOTION": 13.5209761, "ECCENTRICITY": 0.02853312, "INCLINATION": 98.9814, "RA_OF_ASC_NODE": 104.4038, "ARG_OF_PERICENTER": 154.7014, "MEAN_ANOMALY": 206.8414, "EPHEMERIS_TYPE": 0, "CLASSIFICATION_TYPE": "U", "NORAD_CAT_ID": 37415, "ELEMENT_SET_NO": 999, "REV_AT_EPOCH": 62468, "BSTAR": 0.00032333843, "MEAN_MOTION_DOT": 2.38e-06, "MEAN_MOTION_DDOT": 0}, "tle": {"line1": "1 37415U 99025EGH 25357.57862198  .00000238  00000+0  32334-3 0  9993", "line2": "2 37415  98.9814 104.4038 0285331 154.7014 206.8414 13.52097610624680"}}, "geometry": {"type": "Point", "coordinates": [104.51238231854168, 16.65616388236102]}}, {"type": "Feature", "properties": {"norad_id": 37417, "name": "FENGYUN 1C DEB", "group": "fengyun-1c-debris", "lat": 53.996877388789606, "lon": -19.188018047381828, "alt_km": 918.3752378591598, "timestamp": "2025-12-26T16:33:55.859335+00:00", "meta": {"OBJECT_NAME": "FENGYUN 1C DEB", "OBJECT_ID": "1999-025EGK", "EPOCH": "2025-12-23T18:20:46.512672", "MEAN_MOTION": 14.07401894, "ECCENTRICITY": 0.00785702, "INCLINATION": 98.7977, "RA_OF_ASC_NODE": 350.2692, "ARG_OF_PERICENTER": 229.3558, "MEAN_ANOMALY": 130.0762, "EPHEMERIS_TYPE": 0, "CLASSIFICATION_TYPE": "U", "NORAD_CAT_ID": 37417, "ELEMENT_SET_NO": 999, "REV_AT_EPOCH": 68505, "BSTAR": 0.00036509896, "MEAN_MOTION_DOT": 5.88e-06, "MEAN_MOTION_DDOT": 0}, "tle": {"line1": "1 37417U 99025EGK 25357.76442723  .00000588  00000+0  36510-3 0  9992", "line2": "2 37417  98.7977 350.2692 0078570 229.3558 130.0762 14.07401894685050"}}, "geometry": {"type": "Point", "coordinates": [-19.188018047381828, 53.996877388789606]}}, {"type": "Feature", "properties": {"norad_id": 37418, "name": "FENGYUN 1C DEB", "group": "fengyun-1c-debris", "lat": 40.027328764224926, "lon": -119.10511161850364, "alt_km": 1884.458849847414, "timestamp": "2025-12-26T16:33:55.859344+00:00", "meta": {"OBJECT_NAME": "FENGYUN 1C DEB", "OBJECT_ID": "1999-025EGL", "EPOCH": "2025-12-19T23:37:42.567744", "MEAN_MOTION": 11.95144251, "ECCENTRICITY": 0.10761283, "INCLINATION": 98.6118, "RA_OF_ASC_NODE": 243.7385, "ARG_OF_PERICENTER": 305.6539, "MEAN_ANOMALY": 44.8873, "EPHEMERIS_TYPE": 0, "CLASSIFICATION_TYPE": "U", "NORAD_CAT_ID": 37418, "ELEMENT_SET_NO": 999, "REV_AT_EPOCH": 49571, "BSTAR": -0.00092644522, "MEAN_MOTION_DOT": -4.14e-06, "MEAN_MOTION_DDOT": 0}, "tle": {"line1": "1 37418U 99025EGL 25353.98452046 -.00000414  00000+0 -92645-3 0  9993", "line2": "2 37418  98.6118 243.7385 1076128 305.6539  44.8873 11.95144251495719"}}, "geometry": {"type": "Point", "coordinates": [-119.10511161850364, 40.027328764224926]}}, {"type": "Feature", "properties": {"norad_id": 37420, "name": "FENGYUN 1C DEB", "group": "fengyun-1c-debris", "lat": -81.12273851177736, "lon": 77.89927054364219, "alt_km": 858.6052474450435, "timestamp": "2025-12-26T16:33:55.859353+00:00", "meta": {"OBJECT_NAME": "FENGYUN 1C DEB", "OBJECT_ID": "1999-025EGN", "EPOCH": "2025-12-24T04:56:55.361184", "MEAN_MOTION": 13.99763331, "ECCENTRICITY": 0.00709676, "INCLINATION": 98.8645, "RA_OF_ASC_NODE": 347.8373, "ARG_OF_PERICENTER": 244.0926, "MEAN_ANOMALY": 115.2912, "EPHEMERIS_TYPE": 0, "CLASSIFICATION_TYPE": "U", "NORAD_CAT_ID": 37420, "ELEMENT_SET_NO": 999, "REV_AT_EPOCH": 59925, "BSTAR": 0.00034787038, "MEAN_MOTION_DOT": 4.78e-06, "MEAN_MOTION_DDOT": 0}, "tle": {"line1": "1 37420U 99025EGN 25358.20619631  .00000478  00000+0  34787-3 0  9992", "line2": "2 37420  98.8645 347.8373 0070967 244.0926 115.2912 13.99763331599255"}}, "geometry": {"type": "Point", "coordinates": [77.89927054364219, -81.12273851177736]}}, {"type": "Feature", "properties": {"norad_id": 37421, "name": "FENGYUN 1C DEB", "group": "fengyun-1c-debris", "lat": 16.962973337121454, "lon": 136.50503514955395, "alt_km": 1212.7424906546066, "timestamp": "2025-12-26T16:33:55.859361+00:00", "meta": {"OBJECT_NAME": "FENGYUN 1C DEB", "OBJECT_ID": "1999-025EGP", "EPOCH": "2025-12-22T15:04:15.674880", "MEAN_MOTION": 13.40544347, "ECCENTRICITY": 0.04094585, "INCLINATION": 98.8889, "RA_OF_ASC_NODE": 310.1905, "ARG_OF_PERICENTER": 60.6769, "MEAN_ANOMALY": 303.4625, "EPHEMERIS_TYPE": 0, "CLASSIFICATION_TYPE": "U", "NORAD_CAT_ID": 37421, "ELEMENT_SET_NO": 999, "REV_AT_EPOCH": 61078, "BSTAR": 0.00082017291, "MEAN_MOTION_DOT": 7.02e-06, "MEAN_MOTION_DDOT": 0}, "tle": {"line1": "1 37421U 99025EGP 25356.62795920  .00000702  00000+0  82017-3 0  9992", "line2": "2 37421  98.8889 310.1905 0409458  60.6769 303.4625 13.40544347610782"}}, "geometry": {"type": "Point", "coordinates": [136.50503514955395, 16.962973337121454]}}]}